0 FENGYUN 1C DEB
1 38818U 99025EVJ 13281.40566123  .00000530  00000-0  20867-3 0   710
2 38818 098.7291 342.8276 0099696 322.0508 037.3710 14.30733542 61052
0 FENGYUN 1C DEB
1 38818U 99025EVJ 13284.41279402  .00000563  00000-0  22057-3 0   725
2 38818 098.7284 345.8445 0099626 313.1967 046.1042 14.30737740 61485
0 FENGYUN 1C DEB
1 38818U 99025EVJ 13287.41991923  .00000592  00000-0  23115-3 0   736
2 38818 098.7291 348.8646 0099052 304.4553 054.7368 14.30742004 61919
0 FENGYUN 1C DEB
1 38818U 99025EVJ 13291.40610160  .00000693  00000-0  26786-3 0   741
2 38818 098.7261 352.8560 0098035 292.7201 066.3912 14.30749374 62489
0 FENGYUN 1C DEB
1 38818U 99025EVJ 13294.41320807  .00000725  00000-0  27930-3 0   750
2 38818 098.7227 355.8655 0098368 284.0872 074.9393 14.30754641 62915
